VIASAT-2                
1 42740U 17029A   25339.25531097 -.00000253  00000+0  00000+0 0  9999
2 42740   0.0139 298.6223 0000436 157.1589   0.5081  1.00268127 31266
EUTELSAT 172B           
1 42741U 17029B   25339.24812869  .00000006  00000+0  00000+0 0  9993
2 42741   0.0110  82.7014 0000161 139.0449 113.8871  1.00271279 31789
GSAT-19                 
1 42747U 17031A   25339.11502921  .00000138  00000+0  00000+0 0  9999
2 42747   0.0575 105.5098 0002414 117.1136 300.8323  1.00270129 31209
ECHOSTAR 21             
1 42749U 17032A   25339.14473478  .00000077  00000+0  00000+0 0  9991
2 42749   1.8417 343.2083 0002746 261.9715 251.3910  1.00269695 31151
BULGARIASAT-1           
1 42801U 17038A   25339.14300144  .00000023  00000+0  00000+0 0  9996
2 42801   0.0464  84.4935 0002573 169.8807 233.2073  1.00271022 30895
HELLAS-SAT 3            
1 42814U 17040A   25339.24455669  .00000164  00000+0  00000+0 0  9993
2 42814   0.0499  36.6541 0002201 266.2730 258.4034  1.00272142 30861
GSAT-17                 
1 42815U 17040B   25339.13794770 -.00000245  00000+0  00000+0 0  9992
2 42815   0.0800 101.1390 0007407 160.9118 315.3093  1.00271572 30843
INTELSAT 35E (IS-35E)   
1 42818U 17041A   25338.99313935 -.00000225  00000+0  00000+0 0  9997
2 42818   0.0171 338.3796 0002436 280.2111 138.5160  1.00270444 30866
COSMOS 2520             
1 42907U 17046A   25339.57965579  .00000148  00000+0  00000+0 0  9996
2 42907   0.0367  83.6710 0000757 217.8623  26.7839  1.00269505 30458
TDRS 13                 
1 42915U 17047A   25339.14040142 -.00000090  00000+0  00000+0 0  9996
2 42915   3.4249 357.7458 0009580 127.5874 347.9072  1.00271322 30407
QZS-3 (MICHIBIKI-3)     
1 42917U 17048A   25339.12405976 -.00000335  00000+0  00000+0 0  9999
2 42917   0.0707 217.7047 0002199  39.9277 348.2150  1.00275163 30310
AMAZONAS 5              
1 42934U 17053A   25338.77395807 -.00000269  00000+0  00000+0 0  9991
2 42934   0.0309 324.0022 0004257 270.0342  57.4072  1.00268614 30090
ASIASAT 9               
1 42942U 17057A   25339.30960094 -.00000348  00000+0  00000+0 0  9998
2 42942   0.0079  75.9882 0002554 169.3283  62.6170  1.00268599 29919
INTELSAT 37E (IS-37E)   
1 42950U 17059A   25339.13910141 -.00000128  00000+0  00000+0 0  9994
2 42950   0.0019   0.7049 0003510 251.0809 214.4959  1.00270825 30121
BSAT-4A                 
1 42951U 17059B   25339.09308117 -.00000338  00000+0  00000+0 0  9997
2 42951   0.0481  45.3450 0002064 287.1546 245.0125  1.00270070 29852
QZS-4 (MICHIBIKI-4)     
1 42965U 17062A   25336.35947637 -.00000315  00000+0  00000+0 0  9993
2 42965  40.2317 346.0052 0752468 271.2474  80.8165  1.00255040 29831
SES-11 (ECHOSTAR 105)   
1 42967U 17063A   25338.97918595 -.00000076  00000+0  00000+0 0  9991
2 42967   0.0154 350.4598 0003340 264.3055  66.8357  1.00271327 29772
KOREASAT 5A             
1 42984U 17067A   25338.98462480 -.00000345  00000+0  00000+0 0  9991
2 42984   0.0202 301.8674 0001965 305.7205 294.0880  1.00270838 29589
ALCOMSAT 1              
1 43039U 17078A   25339.09280816 -.00000173  00000+0  00000+0 0  9998
2 43039   0.0675 127.2966 0003767 118.3242 197.1610  1.00270858 29340
SBIRS GEO-3 (USA 282)   
1 43162U 18009A   25338.96843922  .00000140  00000+0  00000+0 0  9991
2 43162   2.0921   2.1754 0002498 253.3300   7.7657  1.00271108 28899
AL YAH 3                
1 43174U 18012A   25339.13866808 -.00000143  00000+0  00000+0 0  9990
2 43174   1.0496  85.5457 0003865 181.7995 196.6739  1.00271317 28909
SES-14                  
1 43175U 18012B   25339.13329471 -.00000266  00000+0  00000+0 0  9997
2 43175   0.0179  11.8422 0001204 236.5999 186.2448  1.00270440  5070
GOES 17                 
1 43226U 18022A   25339.15669844 -.00000170  00000+0  00000+0 0  9992
2 43226   0.4390  89.2834 0003504 182.6561 129.1913  1.00271075 28470
HISPASAT 30W-6          
1 43228U 18023A   25338.99400603 -.00000203  00000+0  00000+0 0  9999
2 43228   0.0480  40.8043 0003347 233.1960 127.8947  1.00271401 28456
SUPERBIRD-B3            
1 43271U 18033A   25338.81807168 -.00000079  00000+0  00000+0 0  9997
2 43271   0.0475 101.5162 0001515 155.3674 273.5128  1.00269886 28114
HYLAS 4                 
1 43272U 18033B   25338.99331269 -.00000221  00000+0  00000+0 0  9990
2 43272   0.0145 301.4987 0001715 333.9995 122.5989  1.00267368 28118
IRNSS-1I                
1 43286U 18035A   25338.86816529  .00000076  00000+0  00000+0 0  9997
2 43286  29.1310  77.2208 0022049 181.8312 182.5191  1.00267909 28133
USA 283                 
1 43339U 18036A   25337.67104976  .00000000  00000+0  00000+0 0  9998
2 43339   0.0254 327.9144 0000625 316.6245 163.8720  1.00274525 23339
COSMOS 2526             
1 43432U 18037A   25339.45338171 -.00000333  00000+0  00000+0 0  9997
2 43432   0.0317  76.7862 0001075 338.7701 310.2371  1.00271926 28024
APSTAR-6C               
1 43450U 18041A   25338.97753105 -.00000305  00000+0  00000+0 0  9995
2 43450   0.0308 358.1257 0003792 276.4436 285.4036  1.00270994 27855
BANGABANDHUSAT-1        
1 43463U 18044A   25339.23764197 -.00000350  00000+0  00000+0 0  9995
2 43463   0.0207  62.7166 0002495 193.9471  22.2856  1.00271462 27763
SES-12                  
1 43488U 18049A   25339.13794770 -.00000257  00000+0  00000+0 0  9992
2 43488   0.0250  30.6222 0002850 232.2842 315.9601  1.00272164 27477
FENGYUN 2H              
1 43491U 18050A   25339.08710113 -.00000119  00000+0  00000+0 0  9998
2 43491   2.5298  81.4140 0002934 163.8161 299.6365  1.00271291 27496
BEIDOU-2 IGSO-7         
1 43539U 18057A   25338.45098788 -.00000035  00000+0  00000+0 0  9992
2 43539  55.1728 164.7444 0092474 235.1674 307.3303  1.00259277 27177
TELSTAR 19V             
1 43562U 18059A   25338.98750600 -.00000267  00000+0  00000+0 0  9993
2 43562   0.0198 221.0019 0002117 335.6660 169.8787  1.00273437 27197
TELKOM 4 (MERAH PUTIH)  
1 43587U 18064A   25339.09273450 -.00000332  00000+0  00000+0 0  9995
2 43587   0.0172 331.1809 0001696 302.2746 302.0820  1.00273034 26935
TELSTAR 18V             
1 43611U 18069A   25339.24136866 -.00000282  00000+0  00000+0 0  9998
2 43611   0.0171 291.7594 0002423 321.4335  46.0059  1.00269815 26683
AZERSPACE 2 (IS-38)     
1 43632U 18074A   25339.02927832  .00000149  00000+0  00000+0 0  9995
2 43632   0.0165 329.2688 0001658 303.0839 217.3943  1.00270458 26505
HORIZONS-3E             
1 43633U 18074B   25339.10486791 -.00000018  00000+0  00000+0 0  9995
2 43633   0.0395 193.0784 0001156  85.1125   2.7538  1.00269387 26396
AEHF-4 (USA 288)        
1 43651U 18079A   25339.25531097 -.00000263  00000+0  00000+0 0  9998
2 43651   1.4561 347.1567 0059489   1.3887 110.0924  1.00266390 26353
BEIDOU-3 G1             
1 43683U 18085A   25339.31315428 -.00000266  00000+0  00000+0 0  9998
2 43683   2.5878 103.1782 0001953  64.9746 159.0072  1.00273004 26113
GSAT-29                 
1 43698U 18089A   25339.08224778  .00000097  00000+0  00000+0 0  9990
2 43698   0.0530 103.5769 0003784 146.9847 268.2430  1.00272806 25853
ES'HAIL 2               
1 43700U 18090A   25338.57704175  .00000159  00000+0  00000+0 0  9992
2 43700   0.0177  13.7086 0001547 252.5823  40.8941  1.00272932 25728
GEO-KOMPSAT-2A          
1 43823U 18100A   25339.23946198 -.00000332  00000+0  00000+0 0  9991
2 43823   0.0604 120.2174 0000428  62.8898 105.6625  1.00271967 25683
GSAT-11                 
1 43824U 18100B   25339.08597447 -.00000064  00000+0  00000+0 0  9996
2 43824   0.0433 255.9517 0001964 227.9250  55.1984  1.00271773 25539
GSAT-7A                 
1 43864U 18105A   25339.08380779  .00000039  00000+0  00000+0 0  9994
2 43864   0.0707  97.3588 0002797 156.1800 273.5294  1.00269940 25502
COSMOS 2533             
1 43867U 18107A   25339.65592288 -.00000028  00000+0  00000+0 0  9991
2 43867   0.0442 104.7888 0000805 178.8597  97.1888  1.00268508 25495
TJS-3                   
1 43874U 18110A   25339.72508329  .00000066  00000+0  00000+0 0  9995
2 43874   2.0457  82.8548 0001780 163.4326 148.5089  1.00269393 25478
ZHONGXING-2D            
1 43920U 19001A   25339.31116094 -.00000325  00000+0  00000+0 0  9995
2 43920   0.0157 284.4740 0002176 341.5884  50.3553  1.00270206 52131
HELLAS-SAT 4 & SGS-1    
1 44034U 19007A   25338.91726343  .00000166  00000+0  00000+0 0  9999
2 44034   0.0657 130.4738 0004871  46.8862 265.8369  1.00269323 25412
GSAT-31                 
1 44035U 19007B   25339.11502921  .00000138  00000+0  00000+0 0  9996
2 44035   0.0155 287.0471 0006669 328.1122 268.3060  1.00272012 25023
NUSANTARA SATU          
1 44048U 19009A   25338.93864324 -.00000221  00000+0  00000+0 0  9993
2 44048   0.0514 137.0376 0002632  45.6833  15.2046  1.00269428 24827
ZHONGXING-6C            
1 44067U 19012A   25339.63725160 -.00000325  00000+0  00000+0 0  9995
2 44067   0.0220   1.2720 0004346  49.6793  23.5744  1.00270096 24808
WGS 10 (USA 291)        
1 44071U 19014A   25338.86929197  .00000060  00000+0  00000+0 0  9997
2 44071   0.0185 339.1203 0001279 326.8841 141.1670  1.00270163 24673
TIANLIAN 2-01           
1 44076U 19017A   25339.65730956 -.00000096  00000+0  00000+0 0  9996
2 44076   0.0488  53.9409 0004763 199.0939 135.3173  1.00270293 24703
ARABSAT-6A              
1 44186U 19021A   25338.86339860  .00000167  00000+0  00000+0 0  9992
2 44186   0.0389 328.2294 0006465 296.5994 150.4370  1.00270159 24203
BEIDOU-3 IGSO-1         
1 44204U 19023A   25323.59378135 -.00000226  00000+0  00000+0 0  9994
2 44204  58.4003  39.8168 0026966 221.2202 126.9723  1.00252177  5102
BEIDOU-2 G8             
1 44231U 19027A   25339.31402095 -.00000236  00000+0  00000+0 0  9999
2 44231   1.6419  74.7087 0008455 254.7332   2.5419  1.00269636 24132
YAMAL 601               
1 44307U 19031A   25339.65176286  .00000130  00000+0  00000+0 0  9997
2 44307   0.0166 286.9918 0002540 322.0078 109.3540  1.00275342 23976
